H1 CPF 01  gfz 2021 12 05 13  8392 tandemx   
H2 1003001  6202 36605    2021 12 05 12 59 42 2021 12 10 00 00 42   120 1 1  0 0 0
H9
10 0 59556  19422.000000  0   -4376671.535    -23962.672   5309213.059
10 0 59556  19542.000000  0   -3649016.645    197540.166   5828783.973
10 0 59556  19662.000000  0   -2853907.769    402268.427   6245839.543
10 0 59556  19782.000000  0   -2005582.333    585593.561   6553083.463
10 0 59556  19902.000000  0   -1119269.578    743519.812   6745147.713
10 0 59556  20022.000000  0    -210914.028    872767.855   6818679.998
10 0 59556  20142.000000  0     703111.301    970840.591   6772397.850
10 0 59556  20262.000000  0    1606298.867   1036070.824   6607109.583
10 0 59556  20382.000000  0    2482303.739   1067649.990   6325701.148
10 0 59556  20502.000000  0    3315239.083   1065636.966   5933089.542
10 0 59556  20622.000000  0    4089966.818   1030947.170   5436141.922
10 0 59556  20742.000000  0    4792375.694    965322.224   4843560.798
10 0 59556  20862.000000  0    5409644.825    871280.290   4165739.327
10 0 59556  20982.000000  0    5930488.021    752048.616   3414583.251
10 0 59556  21102.000000  0    6345370.165    611479.516   2603302.105
10 0 59556  21222.000000  0    6646690.338    453950.525   1746175.950
10 0 59556  21342.000000  0    6828931.197    284252.226    858300.399
10 0 59556  21462.000000  0    6888765.656    107466.063    -44686.349
10 0 59556  21582.000000  0    6825121.112    -71165.121   -946887.605
10 0 59556  21702.000000  0    6639196.922   -246370.154  -1832437.366
10 0 59556  21822.000000  0    6334436.033   -412982.613  -2685787.409
10 0 59556  21942.000000  0    5916452.079   -566071.046  -3491985.657
10 0 59556  22062.000000  0    5392914.528   -701062.544  -4236940.911
10 0 59556  22182.000000  0    4773394.677   -813856.237  -4907667.927
10 0 59556  22302.000000  0    4069178.637   -900924.195  -5492508.140
10 0 59556  22422.000000  0    3293051.916   -959398.967  -5981324.470
10 0 59556  22542.000000  0    2459059.468   -987145.504  -6365666.771
10 0 59556  22662.000000  0    1582247.697   -982814.701  -6638906.213
10 0 59556  22782.000000  0     678393.504   -945879.803  -6796338.548
10 0 59556  22902.000000  0    -236276.128   -876654.854  -6835256.894
10 0 59556  23022.000000  0   -1145369.423   -776293.996  -6754992.476
10 0 59556  23142.000000  0   -2032616.555   -646772.684  -6556925.338
10 0 59556  23262.000000  0   -2882154.530   -490850.182  -6244462.184
10 0 59556  23382.000000  0   -3678803.894   -312014.780  -5822983.660
10 0 59556  23502.000000  0   -4408337.737   -114411.785  -5299762.881
10 0 59556  23622.000000  0   -5057737.528     97244.583  -4683850.515
10 0 59556  23742.000000  0   -5615430.325    317773.374  -3985930.472
10 0 59556  23862.000000  0   -6071505.144    541643.027  -3218145.199
10 0 59556  23982.000000  0   -6417901.163    763098.088  -2393891.737
10 0 59556  24102.000000  0   -6648563.015    976294.432  -1527591.535
10 0 59556  24222.000000  0   -6759560.180   1175439.228   -634438.516
10 0 59556  24342.000000  0   -6749165.112   1354932.385    269873.339
10 0 59556  24462.000000  0   -6617885.181   1509505.476   1169432.425
10 0 59556  24582.000000  0   -6368452.073   1634355.696   2048397.148
10 0 59556  24702.000000  0   -6005766.133   1725270.644   2891284.278
10 0 59556  24822.000000  0   -5536796.353   1778740.129   3683250.535
10 0 59556  24942.000000  0   -4970438.544   1792052.181   4410360.099
10 0 59556  25062.000000  0   -4317337.233   1763371.419   5059832.176
10 0 59556  25182.000000  0   -3589676.575   1691798.119   5620264.922
10 0 59556  25302.000000  0   -2800945.304   1577406.766   6081833.411
10 0 59556  25422.000000  0   -1965678.800   1421263.703   6436458.533
10 0 59556  25542.000000  0   -1099184.487   1225422.383   6677941.998
10 0 59556  25662.000000  0    -217258.313    992897.400   6802067.371
10 0 59556  25782.000000  0     664103.018    727617.958   6806668.488
10 0 59556  25902.000000  0    1528991.104    434361.232   6691664.768
10 0 59556  26022.000000  0    2361871.663    118666.956   6459062.661
10 0 59556  26142.000000  0    3147863.073   -213266.148   6112924.076
10 0 59556  26262.000000  0    3873004.364   -554700.519   5659300.202
10 0 59556  26382.000000  0    4524506.721   -898494.269   5106131.054
10 0 59556  26502.000000  0    5090984.717  -1237248.271   4463112.849
10 0 59556  26622.000000  0    5562663.339  -1563462.230   3741532.971
10 0 59556  26742.000000  0    5931555.963  -1869697.424   2954074.709
10 0 59556  26862.000000  0    6191608.938  -2148742.325   2114594.218
10 0 59556  26982.000000  0    6338808.402  -2393776.767   1237873.924
10 0 59556  27102.000000  0    6371247.602  -2598530.660    339356.674
10 0 59556  27222.000000  0    6289151.355  -2757433.462   -565134.513
10 0 59556  27342.000000  0    6094857.771  -2865749.909  -1459684.344
10 0 59556  27462.000000  0    5792755.686  -2919698.923  -2328574.528
10 0 59556  27582.000000  0    5389181.774  -2916552.092  -3156566.308
10 0 59556  27702.000000  0    4892280.621  -2854709.866  -3929171.488
10 0 59556  27822.000000  0    4311831.815  -2733754.808  -4632906.240
10 0 59556  27942.000000  0    3659047.601  -2554480.034  -5255523.863
10 0 59556  28062.000000  0    2946346.857  -2318892.172  -5786220.066
10 0 59556  28182.000000  0    2187114.003  -2030190.611  -6215809.580
10 0 59556  28302.000000  0    1395445.846  -1692723.672  -6536875.656
10 0 59556  28422.000000  0     585888.932  -1311920.885  -6743887.524
10 0 59556  28542.000000  0    -226824.721   -894205.147  -6833285.101
10 0 59556  28662.000000  0   -1028040.160   -446885.597  -6803532.865
10 0 59556  28782.000000  0   -1803437.429     21967.355  -6655143.372
10 0 59556  28902.000000  0   -2539281.691    503664.170  -6390668.466
10 0 59556  29022.000000  0   -3222660.725    989052.449  -6014659.927
10 0 59556  29142.000000  0   -3841708.432   1468686.081  -5533600.394
10 0 59556  29262.000000  0   -4385812.485   1933004.574  -4955803.130
10 0 59556  29382.000000  0   -4845801.076   2372521.327  -4291280.074
10 0 59556  29502.000000  0   -5214104.445   2778015.959  -3551578.102
10 0 59556  29622.000000  0   -5484888.106   3140726.074  -2749587.435
10 0 59556  29742.000000  0   -5654155.848   3452536.238  -1899323.170
10 0 59556  29862.000000  0   -5719817.747   3706159.083  -1015682.002
10 0 59556  29982.000000  0   -5681720.727   3895302.781   -114178.690
10 0 59556  30102.000000  0   -5541641.113   4014821.607    789331.923
10 0 59556  30222.000000  0   -5303237.217   4060844.234   1678943.220
10 0 59556  30342.000000  0   -4971962.377   4030875.883   2538985.981
10 0 59556  30462.000000  0   -4554942.917   3923873.108   3354312.101
10 0 59556  30582.000000  0   -4060823.481   3740289.003   4110568.956
10 0 59556  30702.000000  0   -3499583.380   3482086.292   4794456.204
10 0 59556  30822.000000  0   -2882329.738   3152720.573   5393961.199
10 0 59556  30942.000000  0   -2221071.271   2757092.858   5898568.591
10 0 59556  31062.000000  0   -1528479.367   2301473.379   6299441.006
10 0 59556  31182.000000  0    -817640.501   1793397.932   6589567.576
10 0 59556  31302.000000  0    -101808.021   1241540.248   6763878.891
10 0 59556  31422.000000  0     605844.614    655562.096   6819330.910
10 0 59556  31542.000000  0    1292465.710     45943.893   6754954.318
10 0 59556  31662.000000  0    1945757.547   -576201.896   6571870.783
10 0 59556  31782.000000  0    2554196.102  -1199332.913   6273275.297
10 0 59556  31902.000000  0    3107235.179  -1811690.099   5864384.693
10 0 59556  32022.000000  0    3595492.375  -2401520.043   5352352.117
10 0 59556  32142.000000  0    4010912.227  -2957301.413   4746147.460
10 0 59556  32262.000000  0    4346904.151  -3467972.490   4056406.024
10 0 59556  32382.000000  0    4598452.447  -3923155.170   3295245.835
10 0 59556  32502.000000  0    4762196.171  -4313370.151   2476056.106
10 0 59556  32622.000000  0    4836476.011  -4630237.538   1613259.187
10 0 59556  32742.000000  0    4821345.933  -4866658.080    722051.867
10 0 59556  32862.000000  0    4718549.950  -5016971.298   -181869.139
10 0 59556  32982.000000  0    4531464.538  -5077085.197  -1082591.740
10 0 59556  33102.000000  0    4265008.712  -5044574.609  -1964277.896
10 0 59556  33222.000000  0    3925522.264  -4918745.337  -2811449.934
10 0 59556  33342.000000  0    3520617.102  -4700662.946  -3609267.872
10 0 59556  33462.000000  0    3059005.388  -4393146.239  -4343791.361
10 0 59556  33582.000000  0    2550309.625  -4000726.076  -5002222.436
10 0 59556  33702.000000  0    2004858.529  -3529569.985  -5573122.549
10 0 59556  33822.000000  0    1433476.063  -2987377.774  -6046601.033
10 0 59556  33942.000000  0     847266.975  -2383250.798  -6414476.264
10 0 59556  34062.000000  0     257401.970  -1727535.187  -6670406.802
10 0 59556  34182.000000  0    -325092.131  -1031642.619  -6809989.820
10 0 59556  34302.000000  0    -889533.227   -307853.011  -6830827.837
10 0 59556  34422.000000  0   -1425774.754    430897.806  -6732564.820
10 0 59556  34542.000000  0   -1924383.940   1171243.175  -6516891.003
10 0 59556  34662.000000  0   -2376803.669   1899621.407  -6187516.909
10 0 59556  34782.000000  0   -2775497.206   2602518.013  -5750116.934
10 0 59556  34902.000000  0   -3114074.141   3266713.142  -5212242.330
10 0 59556  35022.000000  0   -3387395.452   3879529.744  -4583202.874
10 0 59556  35142.000000  0   -3591655.774   4429078.099  -3873916.315
10 0 59556  35262.000000  0   -3724438.922   4904490.605  -3096727.097
10 0 59556  35382.000000  0   -3784746.199   5296141.856  -2265198.913
10 0 59556  35502.000000  0   -3772998.465   5595850.784  -1393882.634
10 0 59556  35622.000000  0   -3691009.349   5797059.699   -498061.458
10 0 59556  35742.000000  0   -3541929.036   5894982.147    406521.859
10 0 59556  35862.000000  0   -3330162.245   5886717.318   1303948.179
99
